GSAT0101 (PRN E11)      
1 37846U 11060A   23005.62407031 -.00000080  00000+0  00000+0 0  9996
2 37846  57.0593  15.8459 0002921 328.4116  31.6048  1.70476153 69663
GSAT0102 (PRN E12)      
1 37847U 11060B   23005.54515008 -.00000080  00000+0  00000+0 0  9992
2 37847  57.0603  15.8476 0004654 310.8680  47.5391  1.70475468 69666
GSAT0103 (PRN E19)      
1 38857U 12055A   23006.83597096  .00000002  00000+0  00000+0 0  9992
2 38857  55.2007 136.1061 0002932 238.5284 121.3874  1.70473628 63719
GSAT0104 (PRN E20)      
1 38858U 12055B   23005.63259579 -.00000001  00000+0  00000+0 0  9991
2 38858  55.2011 136.1408 0001512 178.8839 181.0587  1.70473858 63556
GSAT0201 (PRN E18)      
1 40128U 14050A   23006.41163002 -.00000107  00000+0  00000+0 0  9990
2 40128  50.1385 324.1921 1613598 131.3835 243.6856  1.85519552 54989
GSAT0202 (PRN E14)      
1 40129U 14050B   23006.67190154 -.00000105  00000+0  00000+0 0  9995
2 40129  50.1603 323.2478 1610920 132.2048 242.6678  1.85520254 57156
GSAT0203 (PRN E26)      
1 40544U 15017A   23004.81687127 -.00000082  00000+0  00000+0 0  9999
2 40544  56.8553  15.8734 0005147 264.0322  95.9443  1.70476099 47733
GSAT0204 (PRN E22)      
1 40545U 15017B   23002.13717368 -.00000085  00000+0  00000+0 0  9997
2 40545  56.8590  15.9598 0004744 252.9017 107.0834  1.70475624 10735
GSAT0205 (PRN E24)      
1 40889U 15045A   23006.59800484  .00000030  00000+0  00000+0 0  9994
2 40889  55.4966 256.3519 0006753  30.1412 329.9919  1.70472853 45579
GSAT0206 (PRN E30)      
1 40890U 15045B   23005.05890542  .00000025  00000+0  00000+0 0  9994
2 40890  55.4966 256.3902 0004242  11.8522 348.2456  1.70473150 45577
GSAT0209 (PRN E09)      
1 41174U 15079A   23005.23160160 -.00000002  00000+0  00000+0 0  9999
2 41174  55.2174 135.8553 0002010 315.2555  44.6706  1.70474770 43317
GSAT0208 (PRN E08)      
1 41175U 15079B   23005.45112115 -.00000002  00000+0  00000+0 0  9991
2 41175  55.2163 135.8478 0001340 317.7315  42.2005  1.70474699 43897
GSAT0211 (PRN E02)      
1 41549U 16030A   23006.15777541  .00000029  00000+0  00000+0 0  9990
2 41549  55.6427 256.3141 0004547 355.7815   4.3076  1.70473103 41225
GSAT0210 (PRN E01)      
1 41550U 16030B   23005.86316102  .00000028  00000+0  00000+0 0  9990
2 41550  55.6418 256.3238 0002932 333.7032  26.3737  1.70474649 41210
GSAT0207 (PRN E07)      
1 41859U 16069A   23005.52563583 -.00000002  00000+0  00000+0 0  9997
2 41859  54.8791 135.9786 0002230 285.9217  73.9960  1.70474663 38163
GSAT0212 (PRN E03)      
1 41860U 16069B   23003.03315332  .00000004  00000+0  00000+0 0  9991
2 41860  54.8759 136.0448 0001056 358.1472   1.7999  1.70473324 38150
GSAT0213 (PRN E04)      
1 41861U 16069C   23004.57153731 -.00000002  00000+0  00000+0 0  9994
2 41861  54.8786 136.0078 0002635 249.2762 110.6386  1.70473530 38177
GSAT0214 (PRN E05)      
1 41862U 16069D   23004.71871122 -.00000002  00000+0  00000+0 0  9992
2 41862  54.8770 135.9980 0001694 243.1410 116.7844  1.70473563 38170
GSAT0215 (PRN E21)      
1 43055U 17079A   23005.79556366  .00000028  00000+0  00000+0 0  9996
2 43055  55.6180 256.1536 0002115   2.3005 357.7921  1.70473378 31537
GSAT0216 (PRN E25)      
1 43056U 17079B   23006.67419526  .00000031  00000+0  00000+0 0  9995
2 43056  55.6183 256.1294 0003645 314.6278  45.4373  1.70474047 31561
GSAT0217 (PRN E27)      
1 43057U 17079C   23006.89449607  .00000031  00000+0  00000+0 0  9993
2 43057  55.6162 256.1226 0003684 332.4785  27.5973  1.70472395 31558
GSAT0218 (PRN E31)      
1 43058U 17079D   23003.59500741  .00000018  00000+0  00000+0 0  9990
2 43058  55.6181 256.2111 0003389 314.8602  45.1919  1.70473918 31523
GSAT0221 (PRN E15)      
1 43564U 18060A   23006.42633686 -.00000078  00000+0  00000+0 0  9990
2 43564  57.2361  15.6968 0005659 279.5894  80.3787  1.70475995 27720
GSAT0222 (PRN E33)      
1 43565U 18060B   23003.12668690 -.00000083  00000+0  00000+0 0  9994
2 43565  57.2371  15.7864 0005225 284.1689  75.8099  1.70476488 27713
GSAT0219 (PRN E36)      
1 43566U 18060C   23006.86674772 -.00000077  00000+0  00000+0 0  9990
2 43566  57.2398  15.6875 0004918 286.6023  73.3748  1.70476006 27755
GSAT0220 (PRN E13)      
1 43567U 18060D   23007.08702520 -.00000076  00000+0  00000+0 0  9998
2 43567  57.2394  15.6819 0005182 280.9439  79.0285  1.70476003 27736
GSAT0223                
1 49809U 21116A   23006.64954101 -.00000077  00000+0  00000+0 0  9995
2 49809  57.2317  15.5910 0003039 242.6625 298.9665  1.70476227  6748
GSAT0224                
1 49810U 21116B   23004.70910527 -.00000081  00000+0  00000+0 0  9991
2 49810  57.2354  15.6414 0002459 247.6851 295.5280  1.70476152  6723
